{
  "norad_id": 49306,
  "name": "ONEWEB-0380",
  "history": [
    {
      "epoch": "2026-03-28T21:29:00.082176Z",
      "apogee_km": 1186.91026125822,
      "perigee_km": 1184.623995596361,
      "latitude_deg": -9.22274777528996e-05,
      "longitude_deg": 172.42092825574971,
      "height_km": 1188.4255766636315,
      "semi_major_axis_km": 7563.90412842729,
      "eccentricity": 0.00015113,
      "inclination_deg": 87.9196,
      "raan_deg": 320.9803,
      "arg_perigee_deg": 77.8445,
      "mean_anomaly_deg": 282.2856,
      "mean_motion_rev_day": 13.19725896
    },
    {
      "epoch": "2026-03-29T04:45:42.312096Z",
      "apogee_km": 1186.9070235233812,
      "perigee_km": 1184.6242377094622,
      "latitude_deg": 1.9364439691086376e-05,
      "longitude_deg": 62.88566119725762,
      "height_km": 1188.428956880862,
      "semi_major_axis_km": 7563.902630616421,
      "eccentricity": 0.0001509,
      "inclination_deg": 87.9195,
      "raan_deg": 320.9199,
      "arg_perigee_deg": 78.0768,
      "mean_anomaly_deg": 282.0534,
      "mean_motion_rev_day": 13.19726288
    },
    {
      "epoch": "2026-03-30T04:24:59.696064Z",
      "apogee_km": 1186.8981296168158,
      "perigee_km": 1184.6341021361714,
      "latitude_deg": -4.3028269976150995e-05,
      "longitude_deg": 66.89595705955915,
      "height_km": 1188.431739191572,
      "semi_major_axis_km": 7563.903115876494,
      "eccentricity": 0.00014966,
      "inclination_deg": 87.9193,
      "raan_deg": 320.7241,
      "arg_perigee_deg": 78.0939,
      "mean_anomaly_deg": 282.0361,
      "mean_motion_rev_day": 13.19726161
    },
    {
      "epoch": "2026-03-30T13:30:52.529472Z",
      "apogee_km": 1186.9002434178055,
      "perigee_km": 1184.630467598964,
      "latitude_deg": -3.4173342286695782e-06,
      "longitude_deg": -70.02332223486303,
      "height_km": 1188.4360396288516,
      "semi_major_axis_km": 7563.902355508384,
      "eccentricity": 0.00015004,
      "inclination_deg": 87.9192,
      "raan_deg": 320.6486,
      "arg_perigee_deg": 78.3862,
      "mean_anomaly_deg": 281.7439,
      "mean_motion_rev_day": 13.1972636
    },
    {
      "epoch": "2026-03-30T20:47:34.793952Z",
      "apogee_km": 1186.8902362722938,
      "perigee_km": 1184.6411854402477,
      "latitude_deg": -4.666771545250617e-05,
      "longitude_deg": -179.55873899357616,
      "height_km": 1188.4374718735062,
      "semi_major_axis_km": 7563.9027108562705,
      "eccentricity": 0.00014867,
      "inclination_deg": 87.9193,
      "raan_deg": 320.5882,
      "arg_perigee_deg": 78.3321,
      "mean_anomaly_deg": 281.7978,
      "mean_motion_rev_day": 13.19726267
    },
    {
      "epoch": "2026-03-31T04:04:17.029056Z",
      "apogee_km": 1186.8877237035194,
      "perigee_km": 1184.6412449626723,
      "latitude_deg": -4.4819140867111445e-05,
      "longitude_deg": 70.90606865495054,
      "height_km": 1188.4420396775988,
      "semi_major_axis_km": 7563.901484333095,
      "eccentricity": 0.0001485,
      "inclination_deg": 87.9191,
      "raan_deg": 320.5279,
      "arg_perigee_deg": 78.6202,
      "mean_anomaly_deg": 281.5097,
      "mean_motion_rev_day": 13.19726588
    },
    {
      "epoch": "2026-04-01T03:43:34.406112Z",
      "apogee_km": 1186.8786396468859,
      "perigee_km": 1184.6518268294203,
      "latitude_deg": -3.545507783761437e-05,
      "longitude_deg": 74.91599672704535,
      "height_km": 1188.4570302702757,
      "semi_major_axis_km": 7563.902233238153,
      "eccentricity": 0.0001472,
      "inclination_deg": 87.9191,
      "raan_deg": 320.3317,
      "arg_perigee_deg": 79.2643,
      "mean_anomaly_deg": 280.8655,
      "mean_motion_rev_day": 13.19726392
    },
    {
      "epoch": "2026-04-02T08:50:23.526240Z",
      "apogee_km": 1186.8856949003502,
      "perigee_km": 1184.6458720081146,
      "latitude_deg": 4.704023806668491e-05,
      "longitude_deg": -3.2258210848578273,
      "height_km": 1188.4637884555268,
      "semi_major_axis_km": 7563.902783454232,
      "eccentricity": 0.00014806,
      "inclination_deg": 87.9189,
      "raan_deg": 320.0902,
      "arg_perigee_deg": 79.652,
      "mean_anomaly_deg": 280.478,
      "mean_motion_rev_day": 13.19726248
    }
  ]
}